NORAD_CAT_ID,OBJECT_NAME,OBJECT_TYPE,EPOCH,MEAN_MOTION,ECCENTRICITY,INCLINATION,RA_OF_ASC_NODE,ARG_OF_PERICENTER,MEAN_ANOMALY,BSTAR,MEAN_MOTION_DOT,MEAN_MOTION_DDOT,TLE_LINE0,TLE_LINE1,TLE_LINE2,SEMIMAJOR_AXIS,PERIOD,APOGEE,PERIGEE,DECAYED
53905.0,STARLINK-5003,PAYLOAD,2022-10-08 22:00:00,15.73185064,0.0001171,53.2181,183.9402,90.6685,326.2545,-0.00059985,-0.00083915,0.0,0 STARLINK-5003,1 53905U 22119V   22281.91667824 -.00083915  00000-0 -59985-3 0  9992,2 53905  53.2181 183.9402 0001171  90.6685 326.2545 15.73185064  1306,6727.938,91.534,350.591,349.015,0.0
53905.0,STARLINK-5003,PAYLOAD,2022-10-09 12:00:00,15.73110418,0.0001030999999999,53.2179,181.0533,99.2645,23.1484,0.001286,0.00183145,0.0,0 STARLINK-5003,1 53905U 22119V   22282.50001157  .00183145  00000-0  12860-2 0  9993,2 53905  53.2179 181.0533 0001031  99.2645  23.1484 15.73110418  2726,6728.151,91.538,350.709,349.32199999999995,0.0
53905.0,STARLINK-5003,PAYLOAD,2022-10-09 14:00:01,15.731473,0.0001,53.2178,180.6405,101.8842,132.7374,0.0011539,0.00164152,0.0,0 STARLINK-5003,1 53905U 22119V   22282.58334491  .00164152  00000-0  11539-2 0  9990,2 53905  53.2178 180.6405 0001000 101.8842 132.7374 15.73147300  1301,6728.045,91.536,350.583,349.23800000000006,0.0
53905.0,STARLINK-5003,PAYLOAD,2022-10-09 20:00:01,15.73279431,0.0001082999999999,53.2181,179.4042,100.2865,111.0123,-0.00019279,-0.00027679,0.0,0 STARLINK-5003,1 53905U 22119V   22282.83334491 -.00027679  00000-0 -19279-3 0  9992,2 53905  53.2181 179.4042 0001083 100.2865 111.0123 15.73279431  2772,6727.669,91.529,350.26199999999994,348.805,0.0
53905.0,STARLINK-5003,PAYLOAD,2022-10-09 22:00:00,15.73293946,0.0001054,53.218,178.9924,95.2083,228.3395,-0.00048741,-0.0006874,0.0,0 STARLINK-5003,1 53905U 22119V   22282.91667824 -.00068740  00000-0 -48741-3 0  9990,2 53905  53.2180 178.9924 0001054  95.2083 228.3395 15.73293946  1305,6727.627,91.528,350.201,348.783,0.0
53905.0,STARLINK-5003,PAYLOAD,2022-10-10 14:00:01,15.73232813,9.15e-05,53.2173,175.6909,107.5304,34.0548,0.00027507,0.00038214,0.0,0 STARLINK-5003,1 53905U 22119V   22283.58334491  .00038214  00000-0  27507-3 0  9993,2 53905  53.2173 175.6909 0000915 107.5304  34.0548 15.73232813  2895,6727.802,91.531,350.282,349.051,0.0
53905.0,STARLINK-5003,PAYLOAD,2022-10-10 20:00:01,15.73423933,0.0001155,53.2172,174.4488,100.9772,17.3136,-0.0032756,-0.00441236,0.0,0 STARLINK-5003,1 53905U 22119V   22283.83334491 -.00441236  00000-0 -32756-2 0  9996,2 53905  53.2172 174.4488 0001155 100.9772  17.3136 15.73423933  2933,6727.257,91.52,349.899,348.345,0.0
53905.0,STARLINK-5003,PAYLOAD,2022-10-10 22:00:01,15.73455361,0.0001088,53.2174,174.03599999999997,100.9607,129.6483,-0.0049535,-0.0065153,0.0,0 STARLINK-5003,1 53905U 22119V   22283.91668981 -.00651530  00000-0 -49535-2 0  9992,2 53905  53.2174 174.0360 0001088 100.9607 129.6483 15.73455361  1304,6727.167,91.518,349.764,348.3,0.0
53905.0,STARLINK-5003,PAYLOAD,2022-10-11 04:00:00,15.73151534,0.0001124,53.2167,172.8041,86.6179,120.5749,0.00018988,0.00026056,0.0,0 STARLINK-5003,1 53905U 22119V   22284.16667824  .00026056  00000-0  18988-3 0  9991,2 53905  53.2167 172.8041 0001124  86.6179 120.5749 15.73151534  2988,6728.033,91.536,350.655,349.142,0.0
53905.0,STARLINK-5003,PAYLOAD,2022-10-11 14:00:01,15.73049566,9.61e-05,53.2174,170.73,92.0172,316.3394,0.0017393,0.00249254,0.0,0 STARLINK-5003,1 53905U 22119V   22284.58334491  .00249254  00000-0  17393-2 0  9993,2 53905  53.2174 170.7300 0000961  92.0172 316.3394 15.73049566  1300,6728.324000000001,91.542,350.836,349.543,0.0
53905.0,STARLINK-5003,PAYLOAD,2022-10-11 22:00:00,15.731894,9.85e-05,53.2166,169.0963,95.042,42.1266,0.0003344,0.00046549,0.0,0 STARLINK-5003,1 53905U 22119V   22284.91667824  .00046549  00000-0  33440-3 0  9993,2 53905  53.2166 169.0963 0000985  95.0420  42.1266 15.73189400  1306,6727.925,91.534,350.45300000000015,349.12800000000016,0.0
53905.0,STARLINK-5003,PAYLOAD,2022-10-12 12:00:00,15.73270983,8.27e-05,53.217,166.2005,103.5303,99.2727,-0.00056947,-0.00080022,0.0,0 STARLINK-5003,1 53905U 22119V   22285.50001157 -.00080022  00000-0 -56947-3 0  9993,2 53905  53.2170 166.2005 0000827 103.5303  99.2727 15.73270983  3198,6727.693,91.529,350.11400000000015,349.001,0.0
53905.0,STARLINK-5003,PAYLOAD,2022-10-12 14:00:01,15.73270015,9.28e-05,53.2169,165.7863,101.6925,213.3589,-0.00075561,-0.00105654,0.0,0 STARLINK-5003,1 53905U 22119V   22285.58334491 -.00105654  00000-0 -75561-3 0  9993,2 53905  53.2169 165.7863 0000928 101.6925 213.3589 15.73270015  1305,6727.696,91.529,350.185,348.936,0.0
53905.0,STARLINK-5003,PAYLOAD,2022-10-12 22:00:00,15.73196099,0.0001277,53.2174,164.1331,85.9816,318.0382,9.2611e-05,0.00012394,0.0,0 STARLINK-5003,1 53905U 22119V   22285.91667824  .00012394  00000-0  92611-4 0  9991,2 53905  53.2174 164.1331 0001277  85.9816 318.0382 15.73196099  1308,6727.906,91.533,350.63,348.912,0.0
53905.0,STARLINK-5003,PAYLOAD,2022-10-13 04:00:00,15.73204062,0.0001296,53.2171,162.8948,80.6681,300.0488,1.1863e-05,1.045e-05,0.0,0 STARLINK-5003,1 53905U 22119V   22286.16667824  .00001045  00000-0  11863-4 0  9990,2 53905  53.2171 162.8948 0001296  80.6681 300.0488 15.73204062  3295,6727.884,91.533,350.621,348.87699999999984,0.0
53905.0,STARLINK-5003,PAYLOAD,2022-10-13 14:00:01,15.73048758,0.0001049,53.2165,160.8348,97.7649,124.2178,0.0014941,0.00213088,0.0,0 STARLINK-5003,1 53905U 22119V   22286.58334491  .00213088  00000-0  14941-2 0  9997,2 53905  53.2165 160.8348 0001049  97.7649 124.2178 15.73048758  1309,6728.326,91.542,350.897,349.486,0.0
53905.0,STARLINK-5003,PAYLOAD,2022-10-13 22:00:00,15.73208986,9.92e-05,53.2172,159.1849,85.0116,225.8044,-5.3931e-05,-8.184e-05,0.0,0 STARLINK-5003,1 53905U 22119V   22286.91667824 -.00008184  00000-0 -53931-4 0  9998,2 53905  53.2172 159.1849 0000992  85.0116 225.8044 15.73208986  1300,6727.87,91.533,350.402,349.06699999999995,0.0
53905.0,STARLINK-5003,PAYLOAD,2022-10-14 06:00:00,15.73267703,0.0001230999999999,53.2164,157.5417,90.7028,309.0954,-0.0014052,-0.00193912,0.0,0 STARLINK-5003,1 53905U 22119V   22287.25001157 -.00193912  00000-0 -14052-2 0  9990,2 53905  53.2164 157.5417 0001231  90.7028 309.0954 15.73267703  3473,6727.7019999999975,91.529,350.395,348.73900000000015,0.0
53905.0,STARLINK-5003,PAYLOAD,2022-10-14 14:00:01,15.73126783,0.0001539,53.2172,155.8846,99.1232,29.6029,0.0008702,0.00122922,0.0,0 STARLINK-5003,1 53905U 22119V   22287.58334491  .00122922  00000-0  87020-3 0  9993,2 53905  53.2172 155.8846 0001539  99.1232  29.6029 15.73126783  3526,6728.104,91.537,351.004,348.93300000000005,0.0
53905.0,STARLINK-5003,PAYLOAD,2022-10-14 20:00:01,15.73203636,0.0001563,53.2175,154.6463,95.0092,10.3801,9.4165e-06,7.01e-06,0.0,0 STARLINK-5003,1 53905U 22119V   22287.83334491  .00000701  00000-0  94165-5 0  9991,2 53905  53.2175 154.6463 0001563  95.0092  10.3801 15.73203636  3569,6727.885,91.533,350.801,348.6980000000001,0.0
53905.0,STARLINK-5003,PAYLOAD,2022-10-15 12:00:00,15.73194991,0.0001010999999999,53.2152,151.3628,106.8712,176.5323,0.00024836,0.00034371,0.0,0 STARLINK-5003,1 53905U 22119V   22288.50001157  .00034371  00000-0  24836-3 0  9992,2 53905  53.2152 151.3628 0001011 106.8712 176.5323 15.73194991  3667,6727.909000000002,91.533,350.455,349.094,0.0
53905.0,STARLINK-5003,PAYLOAD,2022-10-15 14:00:01,15.73199364,0.000111,53.2154,150.9502,106.9857,288.6518,0.00020153,0.00027756,0.0,0 STARLINK-5003,1 53905U 22119V   22288.58334491  .00027756  00000-0  20153-3 0  9997,2 53905  53.2154 150.9502 0001110 106.9857 288.6518 15.73199364  1305,6727.897,91.533,350.509,349.015,0.0
53905.0,STARLINK-5003,PAYLOAD,2022-10-15 20:00:01,15.73233355,0.0001114,53.2155,149.7147,97.8162,274.5667,-0.00098988,-0.00137488,0.0,0 STARLINK-5003,1 53905U 22119V   22288.83335648 -.00137488  00000-0 -98988-3 0  9997,2 53905  53.2155 149.7147 0001114  97.8162 274.5667 15.73233355  3713,6727.8,91.531,350.415,348.916,0.0
53905.0,STARLINK-5003,PAYLOAD,2022-10-15 22:00:01,15.73199795,0.0001111,53.2155,149.3028,93.6307,30.9927,-0.00076565,-0.00106718,0.0,0 STARLINK-5003,1 53905U 22119V   22288.91668981 -.00106718  00000-0 -76565-3 0  9994,2 53905  53.2155 149.3028 0001111  93.6307  30.9927 15.73199795  1304,6727.896,91.533,350.5080000000001,349.01300000000015,0.0
53905.0,STARLINK-5003,PAYLOAD,2022-10-16 04:00:00,15.73124038,9.11e-05,53.2155,148.0657,91.3646,9.8698,0.0003176,0.00044042,0.0,0 STARLINK-5003,1 53905U 22119V   22289.16667824  .00044042  00000-0  31760-3 0  9994,2 53905  53.2155 148.0657 0000911  91.3646   9.8698 15.73124038  3777,6728.111999999999,91.538,350.59,349.36400000000015,0.0
53905.0,STARLINK-5003,PAYLOAD,2022-10-16 14:00:01,15.73164421,9.79e-05,53.2157,146.0023,106.546,195.7574,0.000593,0.00083305,0.0,0 STARLINK-5003,1 53905U 22119V   22289.58334491  .00083305  00000-0  59300-3 0  9996,2 53905  53.2157 146.0023 0000979 106.5460 195.7574 15.73164421  1306,6727.996999999999,91.535,350.52,349.20300000000015,0.0
53905.0,STARLINK-5003,PAYLOAD,2022-10-16 22:00:00,15.73202036,0.00011,53.2159,144.3521,91.7355,299.4966,-7.590300000000001e-05,-0.00011258,0.0,0 STARLINK-5003,1 53905U 22119V   22289.91667824 -.00011258  00000-0 -75903-4 0  9990,2 53905  53.2159 144.3521 0001100  91.7355 299.4966 15.73202036  1309,6727.889,91.533,350.494,349.014,0.0
53905.0,STARLINK-5003,PAYLOAD,2022-10-17 04:00:00,15.73205597,0.0001136,53.215,143.11700000000005,87.6356,280.2592,-2.9859e-05,-4.809e-05,0.0,0 STARLINK-5003,1 53905U 22119V   22290.16667824 -.00004809  00000-0 -29859-4 0  9992,2 53905  53.2150 143.1170 0001136  87.6356 280.2592 15.73205597  3929,6727.879,91.533,350.509,348.98,0.0
53905.0,STARLINK-5003,PAYLOAD,2022-10-17 12:00:00,15.73169306,0.000125,53.2152,141.4662,105.0615,351.8196,0.00065234,0.00091816,0.0,0 STARLINK-5003,1 53905U 22119V   22290.50001157  .00091816  00000-0  65234-3 0  9999,2 53905  53.2152 141.4662 0001250 105.0615 351.8196 15.73169306  3986,6727.983,91.535,350.689,349.00699999999995,0.0
